STARLINK-30997          
1 58482U 23186K   26068.01059115  .00023746  00000+0  89142-3 0  9999
2 58482  42.9998  67.3412 0000499 244.0827 115.9973 15.26763988125796
TIANHUI 7               
1 67300U 25314A   26052.67009905  .00006572  00000+0  25701-3 0  9999
2 67300  97.4117 129.4508 0001691  83.9579 276.1853 15.26178925  8178
